[{"OBJECT_NAME":"ONEWEB-0050","OBJECT_ID":"2020-020AF","EPOCH":"2026-03-09T21:25:12.459648","MEAN_MOTION":14.90004194,"ECCENTRICITY":0.00029804,"INCLINATION":88.9205,"RA_OF_ASC_NODE":246.7269,"ARG_OF_PERICENTER":19.3816,"MEAN_ANOMALY":340.7526,"EPHEMERIS_TYPE":0,"CLASSIFICATION_TYPE":"U","NORAD_CAT_ID":45453,"ELEMENT_SET_NO":999,"REV_AT_EPOCH":32559,"BSTAR":0.00024442233,"MEAN_MOTION_DOT":2.377e-5,"MEAN_MOTION_DDOT":0},{"OBJECT_NAME":"PEGASUS DEB","OBJECT_ID":"1994-029AFG","EPOCH":"2026-03-08T04:30:15.278976","MEAN_MOTION":13.94053374,"ECCENTRICITY":0.04343673,"INCLINATION":82.2874,"RA_OF_ASC_NODE":237.0889,"ARG_OF_PERICENTER":97.0097,"MEAN_ANOMALY":268.0663,"EPHEMERIS_TYPE":0,"CLASSIFICATION_TYPE":"U","NORAD_CAT_ID":39321,"ELEMENT_SET_NO":999,"REV_AT_EPOCH":64017,"BSTAR":0.00075688702,"MEAN_MOTION_DOT":2.229e-5,"MEAN_MOTION_DDOT":0}]
